{
    "links": {
        "self": "http://www.neowsapp.com/rest/v1/neo/54087804?api_key=iIulBulltgU6a56xZRHN4H3l9WmuAYTsLGpBGhQ2"
    },
    "id": "54087804",
    "neo_reference_id": "54087804",
    "name": "(2020 VN4)",
    "designation": "2020 VN4",
    "nasa_jpl_url": "http://ssd.jpl.nasa.gov/sbdb.cgi?sstr=54087804",
    "absolute_magnitude_h": 21.674,
    "estimated_diameter": {
        "kilometers": {
            "estimated_diameter_min": 0.1229574865,
            "estimated_diameter_max": 0.2749412981
        },
        "meters": {
            "estimated_diameter_min": 122.9574864668,
            "estimated_diameter_max": 274.9412980824
        },
        "miles": {
            "estimated_diameter_min": 0.0764022163,
            "estimated_diameter_max": 0.1708405493
        },
        "feet": {
            "estimated_diameter_min": 403.4038398999,
            "estimated_diameter_max": 902.0384084006
        }
    },
    "is_potentially_hazardous_asteroid": false,
    "close_approach_data": [
        {
            "close_approach_date": "2020-10-30",
            "close_approach_date_full": "2020-Oct-30 10:55",
            "epoch_date_close_approach": 1604055300000,
            "relative_velocity": {
                "kilometers_per_second": "23.0628715367",
                "kilometers_per_hour": "83026.3375321866",
                "miles_per_hour": "51589.3373404856"
            },
            "miss_distance": {
                "astronomical": "0.4205035558",
                "lunar": "163.5758832062",
                "kilometers": "62906436.275106146",
                "miles": "39088246.9552549748"
            },
            "orbiting_body": "Earth"
        }
    ],
    "orbital_data": {
        "orbit_id": "6",
        "orbit_determination_date": "2020-11-26 05:21:10",
        "first_observation_date": "2020-11-12",
        "last_observation_date": "2020-11-26",
        "data_arc_in_days": 14,
        "observations_used": 33,
        "orbit_uncertainty": "9",
        "minimum_orbit_intersection": ".273294",
        "jupiter_tisserand_invariant": "4.188",
        "epoch_osculation": "2459168.5",
        "eccentricity": ".6721540052345893",
        "semi_major_axis": "1.438971830375587",
        "inclination": "42.70834512702947",
        "ascending_node_longitude": "235.8580139121578",
        "orbital_period": "630.4880580999933",
        "perihelion_distance": ".4717611511688881",
        "perihelion_argument": "44.26618829416044",
        "aphelion_distance": "2.406182509582286",
        "perihelion_time": "2459074.890825965921",
        "mean_anomaly": "53.44954947096531",
        "mean_motion": ".5709862310237528",
        "equinox": "J2000",
        "orbit_class": {
            "orbit_class_type": "APO",
            "orbit_class_description": "Near-Earth asteroid orbits which cross the Earth’s orbit similar to that of 1862 Apollo",
            "orbit_class_range": "a (semi-major axis) > 1.0 AU; q (perihelion) < 1.017 AU"
        }
    },
    "is_sentry_object": false
}